start=new Date('2022-02-19T00:00:00.000Z').valueOf();
sats=[{"TLE_LINE1":"1 45658U 20035B   22049.87773152  .00002165  00000-0  16422-3 0  9997","OBJECT_NAME":"STARLINK-1441","APOAPSIS":"548.267","EPHEMERIS_TYPE":"0","COUNTRY_CODE":"US","NORAD_CAT_ID":"45658","ECCENTRICITY":"0.00015120","ARG_OF_PERICENTER":"77.7998","DECAY_DATE":null,"CENTER_NAME":"EARTH","BSTAR":"0.00016422000000","FILE":"3307132","CLASSIFICATION_TYPE":"U","LAUNCH_DATE":"2020-06-04","MEAN_MOTION_DDOT":"0.0000000000000","TIME_SYSTEM":"UTC","PERIAPSIS":"546.173","ELEMENT_SET_NO":"999","REF_FRAME":"TEME","GP_ID":"196331831","EPOCH":"2022-02-18T21:03:56.003328","TLE_LINE2":"2 45658  53.0536 229.7503 0001512  77.7998 282.3160 15.06397986 95691","OBJECT_ID":"2020-035B","REV_AT_EPOCH":"9569","MEAN_ANOMALY":"282.3160","MEAN_MOTION_DOT":"0.00002165","MEAN_ELEMENT_THEORY":"SGP4","SEMIMAJOR_AXIS":"6925.355","RCS_SIZE":"LARGE","OBJECT_TYPE":"PAYLOAD","INCLINATION":"53.0536","RA_OF_ASC_NODE":"229.7503","SITE":"AFETR","PERIOD":"95.592","MEAN_MOTION":"15.06397986"},{"INCLINATION":"53.0582","OBJECT_TYPE":"PAYLOAD","RCS_SIZE":"LARGE","SEMIMAJOR_AXIS":"6925.358","MEAN_ELEMENT_THEORY":"SGP4","MEAN_MOTION_DOT":"-0.00000158","MEAN_MOTION":"15.06396870","PERIOD":"95.592","SITE":"AFETR","RA_OF_ASC_NODE":"230.0341","EPOCH":"2022-02-18T19:32:20.147712","REF_FRAME":"TEME","GP_ID":"196331579","REV_AT_EPOCH":"9567","MEAN_ANOMALY":"295.2190","OBJECT_ID":"2020-035C","TLE_LINE2":"2 45659  53.0582 230.0341 0001549  64.8959 295.2190 15.06396870 95677","TIME_SYSTEM":"UTC","MEAN_MOTION_DDOT":"0.0000000000000","LAUNCH_DATE":"2020-06-04","ELEMENT_SET_NO":"999","PERIAPSIS":"546.150","DECAY_DATE":null,"ARG_OF_PERICENTER":"64.8959","NORAD_CAT_ID":"45659","COUNTRY_CODE":"US","ECCENTRICITY":"0.00015490","EPHEMERIS_TYPE":"0","APOAPSIS":"548.296","OBJECT_NAME":"STARLINK-1442","TLE_LINE1":"1 45659U 20035C   22049.81412208 -.00000158  00000-0  82932-5 0  9996","BSTAR":"0.00000829320000","FILE":"3307132","CLASSIFICATION_TYPE":"U","CENTER_NAME":"EARTH"},{"GP_ID":"196330830","REF_FRAME":"TEME","EPOCH":"2022-02-18T18:08:46.859424","TLE_LINE2":"2 45660  53.0526 230.3058 0001584  67.7723 292.3434 15.06404222 95675","REV_AT_EPOCH":"9567","MEAN_ANOMALY":"292.3434","OBJECT_ID":"2020-035D","MEAN_ELEMENT_THEORY":"SGP4","MEAN_MOTION_DOT":"0.00003098","OBJECT_TYPE":"PAYLOAD","INCLINATION":"53.0526","SEMIMAJOR_AXIS":"6925.336","RCS_SIZE":"LARGE","SITE":"AFETR","RA_OF_ASC_NODE":"230.3058","PERIOD":"95.592","MEAN_MOTION":"15.06404222","APOAPSIS":"548.298","TLE_LINE1":"1 45660U 20035D   22049.75609791  .00003098  00000-0  22673-3 0  9995","OBJECT_NAME":"STARLINK-1443","DECAY_DATE":null,"ARG_OF_PERICENTER":"67.7723","EPHEMERIS_TYPE":"0","COUNTRY_CODE":"US","NORAD_CAT_ID":"45660","ECCENTRICITY":"0.00015840","FILE":"3307132","BSTAR":"0.00022673000000","CLASSIFICATION_TYPE":"U","CENTER_NAME":"EARTH","MEAN_MOTION_DDOT":"0.0000000000000","LAUNCH_DATE":"2020-06-04","TIME_SYSTEM":"UTC","PERIAPSIS":"546.104","ELEMENT_SET_NO":"999"},{"EPOCH":"2022-02-18T21:46:23.692224","REF_FRAME":"TEME","GP_ID":"196331080","REV_AT_EPOCH":"9569","MEAN_ANOMALY":"285.2632","OBJECT_ID":"2020-035E","TLE_LINE2":"2 45661  53.0546 229.6139 0001617  74.8536 285.2632 15.06397782 95692","INCLINATION":"53.0546","OBJECT_TYPE":"PAYLOAD","RCS_SIZE":"LARGE","SEMIMAJOR_AXIS":"6925.355","MEAN_ELEMENT_THEORY":"SGP4","MEAN_MOTION_DOT":"-0.00000195","MEAN_MOTION":"15.06397782","PERIOD":"95.592","SITE":"AFETR","RA_OF_ASC_NODE":"229.6139","DECAY_DATE":null,"ARG_OF_PERICENTER":"74.8536","NORAD_CAT_ID":"45661","COUNTRY_CODE":"US","ECCENTRICITY":"0.00016170","EPHEMERIS_TYPE":"0","APOAPSIS":"548.340","OBJECT_NAME":"STARLINK-1444","TLE_LINE1":"1 45661U 20035E   22049.90721866 -.00000195  00000-0  58403-5 0  9999","FILE":"3307132","BSTAR":"0.00000584030000","CLASSIFICATION_TYPE":"U","CENTER_NAME":"EARTH","TIME_SYSTEM":"UTC","MEAN_MOTION_DDOT":"0.0000000000000","LAUNCH_DATE":"2020-06-04","ELEMENT_SET_NO":"999","PERIAPSIS":"546.101"},{"ELEMENT_SET_NO":"999","PERIAPSIS":"546.085","TIME_SYSTEM":"UTC","LAUNCH_DATE":"2020-06-04","MEAN_MOTION_DDOT":"0.0000000000000","CENTER_NAME":"EARTH","FILE":"3307132","BSTAR":"0.00024748000000","CLASSIFICATION_TYPE":"U","EPHEMERIS_TYPE":"0","COUNTRY_CODE":"US","NORAD_CAT_ID":"45662","ECCENTRICITY":"0.00016030","DECAY_DATE":null,"ARG_OF_PERICENTER":"70.7558","TLE_LINE1":"1 45662U 20035F   22049.92195272  .00003407  00000-0  24748-3 0  9999","OBJECT_NAME":"STARLINK-1445","APOAPSIS":"548.306","PERIOD":"95.592","MEAN_MOTION":"15.06405904","RA_OF_ASC_NODE":"229.5491","SITE":"AFETR","SEMIMAJOR_AXIS":"6925.330","RCS_SIZE":"LARGE","OBJECT_TYPE":"PAYLOAD","INCLINATION":"53.0517","MEAN_ELEMENT_THEORY":"SGP4","MEAN_MOTION_DOT":"0.00003407","OBJECT_ID":"2020-035F","MEAN_ANOMALY":"289.3604","REV_AT_EPOCH":"9569","TLE_LINE2":"2 45662  53.0517 229.5491 0001603  70.7558 289.3604 15.06405904 95695","EPOCH":"2022-02-18T22:07:36.715008","GP_ID":"196331332","REF_FRAME":"TEME"},{"REF_FRAME":"TEME","GP_ID":"196332079","EPOCH":"2022-02-18T17:26:19.298400","TLE_LINE2":"2 45663  53.0530 230.4273 0001443  75.9796 284.1353 15.06409370 95665","REV_AT_EPOCH":"9566","MEAN_ANOMALY":"284.1353","OBJECT_ID":"2020-035G","MEAN_ELEMENT_THEORY":"SGP4","MEAN_MOTION_DOT":"0.00001969","INCLINATION":"53.0530","OBJECT_TYPE":"PAYLOAD","RCS_SIZE":"LARGE","SEMIMAJOR_AXIS":"6925.320","SITE":"AFETR","RA_OF_ASC_NODE":"230.4273","MEAN_MOTION":"15.06409370","PERIOD":"95.592","APOAPSIS":"548.184","OBJECT_NAME":"STARLINK-1446","TLE_LINE1":"1 45663U 20035G   22049.72661225  .00001969  00000-0  15099-3 0  9994","ARG_OF_PERICENTER":"75.9796","DECAY_DATE":null,"COUNTRY_CODE":"US","ECCENTRICITY":"0.00014430","NORAD_CAT_ID":"45663","EPHEMERIS_TYPE":"0","BSTAR":"0.00015099000000","FILE":"3307132","CLASSIFICATION_TYPE":"U","CENTER_NAME":"EARTH","MEAN_MOTION_DDOT":"0.0000000000000","LAUNCH_DATE":"2020-06-04","TIME_SYSTEM":"UTC","PERIAPSIS":"546.186","ELEMENT_SET_NO":"999"},{"TIME_SYSTEM":"UTC","MEAN_MOTION_DDOT":"0.0000000000000","LAUNCH_DATE":"2020-06-04","ELEMENT_SET_NO":"999","PERIAPSIS":"546.215","DECAY_DATE":null,"ARG_OF_PERICENTER":"75.8301","EPHEMERIS_TYPE":"0","COUNTRY_CODE":"US","NORAD_CAT_ID":"45665","ECCENTRICITY":"0.00014210","APOAPSIS":"548.184","TLE_LINE1":"1 45665U 20035J   22049.89248177  .00003812  00000-0  27463-3 0  9998","OBJECT_NAME":"STARLINK-1448","BSTAR":"0.00027463000000","FILE":"3307132","CLASSIFICATION_TYPE":"U","CENTER_NAME":"EARTH","OBJECT_TYPE":"PAYLOAD","INCLINATION":"53.0516","SEMIMAJOR_AXIS":"6925.334","RCS_SIZE":"LARGE","MEAN_ELEMENT_THEORY":"SGP4","MEAN_MOTION_DOT":"0.00003812","PERIOD":"95.592","MEAN_MOTION":"15.06404611","SITE":"AFETR","RA_OF_ASC_NODE":"229.6770","EPOCH":"2022-02-18T21:25:10.424928","REF_FRAME":"TEME","GP_ID":"196330331","MEAN_ANOMALY":"284.2846","REV_AT_EPOCH":"9568","OBJECT_ID":"2020-035J","TLE_LINE2":"2 45665  53.0516 229.6770 0001421  75.8301 284.2846 15.06404611 95683"},{"EPOCH":"2022-02-18T18:23:19.978080","REF_FRAME":"TEME","GP_ID":"196330581","OBJECT_ID":"2020-035K","MEAN_ANOMALY":"284.0855","REV_AT_EPOCH":"9566","TLE_LINE2":"2 45666  53.0544 230.2591 0001696  76.0323 284.0855 15.06400840 95661","SEMIMAJOR_AXIS":"6925.346","RCS_SIZE":"LARGE","OBJECT_TYPE":"PAYLOAD","INCLINATION":"53.0544","MEAN_ELEMENT_THEORY":"SGP4","MEAN_MOTION_DOT":"-0.00000650","PERIOD":"95.592","MEAN_MOTION":"15.06400840","RA_OF_ASC_NODE":"230.2591","SITE":"AFETR","EPHEMERIS_TYPE":"0","ECCENTRICITY":"0.00016960","COUNTRY_CODE":"US","NORAD_CAT_ID":"45666","DECAY_DATE":null,"ARG_OF_PERICENTER":"76.0323","TLE_LINE1":"1 45666U 20035K   22049.76620345 -.00000650  00000-0 -24718-4 0  9996","OBJECT_NAME":"STARLINK-1449","APOAPSIS":"548.386","CENTER_NAME":"EARTH","FILE":"3307132","BSTAR":"-0.00002471800000","CLASSIFICATION_TYPE":"U","TIME_SYSTEM":"UTC","LAUNCH_DATE":"2020-06-04","MEAN_MOTION_DDOT":"0.0000000000000","ELEMENT_SET_NO":"999","PERIAPSIS":"546.036"},{"LAUNCH_DATE":"2020-06-04","MEAN_MOTION_DDOT":"0.0000000000000","TIME_SYSTEM":"UTC","PERIAPSIS":"546.142","ELEMENT_SET_NO":"999","OBJECT_NAME":"STARLINK-1450","TLE_LINE1":"1 45667U 20035L   22049.76346153 -.00000526  00000-0 -16409-4 0  9999","APOAPSIS":"548.289","ECCENTRICITY":"0.00015500","COUNTRY_CODE":"US","NORAD_CAT_ID":"45667","EPHEMERIS_TYPE":"0","DECAY_DATE":null,"ARG_OF_PERICENTER":"89.1144","CENTER_NAME":"EARTH","CLASSIFICATION_TYPE":"U","FILE":"3307132","BSTAR":"-0.00001640900000","MEAN_MOTION_DOT":"-0.00000526","MEAN_ELEMENT_THEORY":"SGP4","RCS_SIZE":"LARGE","SEMIMAJOR_AXIS":"6925.351","INCLINATION":"53.0531","OBJECT_TYPE":"PAYLOAD","RA_OF_ASC_NODE":"230.2598","SITE":"AFETR","MEAN_MOTION":"15.06399296","PERIOD":"95.592","REF_FRAME":"TEME","GP_ID":"196331832","EPOCH":"2022-02-18T18:19:23.076192","TLE_LINE2":"2 45667  53.0531 230.2598 0001550  89.1144 271.0022 15.06399296 95664","OBJECT_ID":"2020-035L","MEAN_ANOMALY":"271.0022","REV_AT_EPOCH":"9566"},{"MEAN_MOTION_DDOT":"0.0000000000000","LAUNCH_DATE":"2020-06-04","TIME_SYSTEM":"UTC","PERIAPSIS":"546.021","ELEMENT_SET_NO":"999","APOAPSIS":"548.326","OBJECT_NAME":"STARLINK-1451","TLE_LINE1":"1 45668U 20035M   22049.73303895  .00002759  00000-0  20395-3 0  9999","ARG_OF_PERICENTER":"66.4947","DECAY_DATE":null,"COUNTRY_CODE":"US","ECCENTRICITY":"0.00016640","NORAD_CAT_ID":"45668","EPHEMERIS_TYPE":"0","FILE":"3307132","CLASSIFICATION_TYPE":"U","BSTAR":"0.00020395000000","CENTER_NAME":"EARTH","MEAN_ELEMENT_THEORY":"SGP4","MEAN_MOTION_DOT":"0.00002759","INCLINATION":"53.0560","OBJECT_TYPE":"PAYLOAD","RCS_SIZE":"LARGE","SEMIMAJOR_AXIS":"6925.309","SITE":"AFETR","RA_OF_ASC_NODE":"230.3813","MEAN_MOTION":"15.06413049","PERIOD":"95.591","REF_FRAME":"TEME","GP_ID":"196331580","EPOCH":"2022-02-18T17:35:34.565280","TLE_LINE2":"2 45668  53.0560 230.3813 0001664  66.4947 293.6217 15.06413049 95673","REV_AT_EPOCH":"9567","MEAN_ANOMALY":"293.6217","OBJECT_ID":"2020-035M"}];
